TDRS 8                  
1 26388U 00034A   26087.84674470 -.00000207  00000+0  00000+0 0  9995
2 26388  12.5584  31.9922 0005958 326.0757 217.9209  1.00271852 94376
